{"type": "FeatureCollection", "features": [ {"type": "Feature", "properties": {"norad_id": 34303, "name": "COSMOS 2251 DEB", "group": "cosmos-2251-debris", "lat": 0.5092481778082336, "lon": -77.8927215234871, "alt_km": 663.105450126769, "timestamp": "2025-12-15T22:44:29.324216+00:00", "meta": {"OBJECT_NAME": "COSMOS 2251 DEB", "OBJECT_ID": "1993-036MZ", "EPOCH": "2025-12-14T20:35:33.511200", "MEAN_MOTION": 14.54485516, "ECCENTRICITY": 0.01351146, "INCLINATION": 74.0053, "RA_OF_ASC_NODE": 284.0257, "ARG_OF_PERICENTER": 61.8457, "MEAN_ANOMALY": 357.4625, "EPHEMERIS_TYPE": 0, "CLASSIFICATION_TYPE": "U", "NORAD_CAT_ID": 34303, "ELEMENT_SET_NO": 999, "REV_AT_EPOCH": 87993, "BSTAR": 0.0009707797, "MEAN_MOTION_DOT": 4.644e-05, "MEAN_MOTION_DDOT": 0}, "tle": {"line1": "1 34303U 93036MZ  25348.85802675  .00004644  00000+0  97078-3 0  9998", "line2": "2 34303  74.0053 284.0257 0135114  61.8457 357.4625 14.54485516879939"}}, "geometry": {"type": "Point", "coordinates": [-77.8927215234871, 0.5092481778082336]}}, {"type": "Feature", "properties": {"norad_id": 34304, "name": "COSMOS 2251 DEB", "group": "cosmos-2251-debris", "lat": -69.74065807676031, "lon": 65.71658490303439, "alt_km": 691.3862570891497, "timestamp": "2025-12-15T22:44:29.324226+00:00", "meta": {"OBJECT_NAME": "COSMOS 2251 DEB", "OBJECT_ID": "1993-036NA", "EPOCH": "2025-12-15T08:10:10.530624", "MEAN_MOTION": 14.37887207, "ECCENTRICITY": 0.01289811, "INCLINATION": 74.0127, "RA_OF_ASC_NODE": 117.7974, "ARG_OF_PERICENTER": 255.0718, "MEAN_ANOMALY": 125.197, "EPHEMERIS_TYPE": 0, "CLASSIFICATION_TYPE": "U", "NORAD_CAT_ID": 34304, "ELEMENT_SET_NO": 999, "REV_AT_EPOCH": 87334, "BSTAR": 0.0010811097, "MEAN_MOTION_DOT": 3.565e-05, "MEAN_MOTION_DDOT": 0}, "tle": {"line1": "1 34304U 93036NA  25349.34039966  .00003565  00000+0  10811-2 0  9999", "line2": "2 34304  74.0127 117.7974 0128981 255.0718 125.1970 14.37887207873347"}}, "geometry": {"type": "Point", "coordinates": [65.71658490303439, -69.74065807676031]}}, {"type": "Feature", "properties": {"norad_id": 34307, "name": "COSMOS 2251 DEB", "group": "cosmos-2251-debris", "lat": -62.44449453235275, "lon": 161.19287166890237, "alt_km": 1147.6632273715568, "timestamp": "2025-12-15T22:44:29.324237+00:00", "meta": {"OBJECT_NAME": "COSMOS 2251 DEB", "OBJECT_ID": "1993-036ND", "EPOCH": "2025-12-15T08:06:04.408128", "MEAN_MOTION": 13.54324422, "ECCENTRICITY": 0.03919844, "INCLINATION": 74.0535, "RA_OF_ASC_NODE": 308.9466, "ARG_OF_PERICENTER": 139.3163, "MEAN_ANOMALY": 10.5448, "EPHEMERIS_TYPE": 0, "CLASSIFICATION_TYPE": "U", "NORAD_CAT_ID": 34307, "ELEMENT_SET_NO": 999, "REV_AT_EPOCH": 82897, "BSTAR": 0.0006636419, "MEAN_MOTION_DOT": 7.19e-06, "MEAN_MOTION_DDOT": 0}, "tle": {"line1": "1 34307U 93036ND  25349.33755102  .00000719  00000+0  66364-3 0  9991", "line2": "2 34307  74.0535 308.9466 0391984 139.3163  10.5448 13.54324422828975"}}, "geometry": {"type": "Point", "coordinates": [161.19287166890237, -62.44449453235275]}}, {"type": "Feature", "properties": {"norad_id": 34313, "name": "COSMOS 2251 DEB", "group": "cosmos-2251-debris", "lat": 42.53036656388406, "lon": 103.45964153538971, "alt_km": 499.0767972285321, "timestamp": "2025-12-15T22:44:29.324247+00:00", "meta": {"OBJECT_NAME": "COSMOS 2251 DEB", "OBJECT_ID": "1993-036NK", "EPOCH": "2025-12-15T06:20:57.215904", "MEAN_MOTION": 15.1957083, "ECCENTRICITY": 0.00114065, "INCLINATION": 73.9723, "RA_OF_ASC_NODE": 300.1849, "ARG_OF_PERICENTER": 77.5038, "MEAN_ANOMALY": 282.7434, "EPHEMERIS_TYPE": 0, "CLASSIFICATION_TYPE": "U", "NORAD_CAT_ID": 34313, "ELEMENT_SET_NO": 999, "REV_AT_EPOCH": 89103, "BSTAR": 0.0027638335, "MEAN_MOTION_DOT": 0.00059359, "MEAN_MOTION_DDOT": 0}, "tle": {"line1": "1 34313U 93036NK  25349.26455111  .00059359  00000+0  27638-2 0  9991", "line2": "2 34313  73.9723 300.1849 0011406  77.5038 282.7434 15.19570830891034"}}, "geometry": {"type": "Point", "coordinates": [103.45964153538971, 42.53036656388406]}}, {"type": "Feature", "properties": {"norad_id": 34314, "name": "COSMOS 2251 DEB", "group": "cosmos-2251-debris", "lat": 56.51444831664752, "lon": -31.646379317280797, "alt_km": 755.8025512828426, "timestamp": "2025-12-15T22:44:29.324258+00:00", "meta": {"OBJECT_NAME": "COSMOS 2251 DEB", "OBJECT_ID": "1993-036NL", "EPOCH": "2025-12-15T07:56:58.607232", "MEAN_MOTION": 14.17429585, "ECCENTRICITY": 0.01029327, "INCLINATION": 74.0057, "RA_OF_ASC_NODE": 303.7584, "ARG_OF_PERICENTER": 48.8159, "MEAN_ANOMALY": 107.4412, "EPHEMERIS_TYPE": 0, "CLASSIFICATION_TYPE": "U", "NORAD_CAT_ID": 34314, "ELEMENT_SET_NO": 999, "REV_AT_EPOCH": 86694, "BSTAR": 0.00056277571, "MEAN_MOTION_DOT": 1.176e-05, "MEAN_MOTION_DDOT": 0}, "tle": {"line1": "1 34314U 93036NL  25349.33123388  .00001176  00000+0  56278-3 0  9995", "line2": "2 34314  74.0057 303.7584 0102932  48.8159 107.4412 14.17429585866940"}}, "geometry": {"type": "Point", "coordinates": [-31.646379317280797, 56.51444831664752]}}, {"type": "Feature", "properties": {"norad_id": 34316, "name": "COSMOS 2251 DEB", "group": "cosmos-2251-debris", "lat": 29.065316836707364, "lon": -20.39983270972387, "alt_km": 584.6849380681324, "timestamp": "2025-12-15T22:44:29.324268+00:00", "meta": {"OBJECT_NAME": "COSMOS 2251 DEB", "OBJECT_ID": "1993-036NN", "EPOCH": "2025-12-15T08:07:19.156224", "MEAN_MOTION": 14.91915937, "ECCENTRICITY": 0.0008623, "INCLINATION": 74.0647, "RA_OF_ASC_NODE": 331.6826, "ARG_OF_PERICENTER": 54.7084, "MEAN_ANOMALY": 305.4904, "EPHEMERIS_TYPE": 0, "CLASSIFICATION_TYPE": "U", "NORAD_CAT_ID": 34316, "ELEMENT_SET_NO": 999, "REV_AT_EPOCH": 89248, "BSTAR": 0.0010221149, "MEAN_MOTION_DOT": 0.00010326, "MEAN_MOTION_DDOT": 0}, "tle": {"line1": "1 34316U 93036NN  25349.33841616  .00010326  00000+0  10221-2 0  9992", "line2": "2 34316  74.0647 331.6826 0008623  54.7084 305.4904 14.91915937892488"}}, "geometry": {"type": "Point", "coordinates": [-20.39983270972387, 29.065316836707364]}}, {"type": "Feature", "properties": {"norad_id": 34317, "name": "COSMOS 2251 DEB", "group": "cosmos-2251-debris", "lat": 58.357981777703024, "lon": -177.42207822620662, "alt_km": 1039.4937115818675, "timestamp": "2025-12-15T22:44:29.324278+00:00", "meta": {"OBJECT_NAME": "COSMOS 2251 DEB", "OBJECT_ID": "1993-036NP", "EPOCH": "2025-12-15T04:54:12.132576", "MEAN_MOTION": 13.65123996, "ECCENTRICITY": 0.03365997, "INCLINATION": 73.9246, "RA_OF_ASC_NODE": 31.7009, "ARG_OF_PERICENTER": 20.4824, "MEAN_ANOMALY": 41.9423, "EPHEMERIS_TYPE": 0, "CLASSIFICATION_TYPE": "U", "NORAD_CAT_ID": 34317, "ELEMENT_SET_NO": 999, "REV_AT_EPOCH": 83653, "BSTAR": 0.00041700106, "MEAN_MOTION_DOT": 4.76e-06, "MEAN_MOTION_DDOT": 0}, "tle": {"line1": "1 34317U 93036NP  25349.20430709  .00000476  00000+0  41700-3 0  9998", "line2": "2 34317  73.9246  31.7009 0336599  20.4824  41.9423 13.65123996836539"}}, "geometry": {"type": "Point", "coordinates": [-177.42207822620662, 58.357981777703024]}}, {"type": "Feature", "properties": {"norad_id": 34321, "name": "COSMOS 2251 DEB", "group": "cosmos-2251-debris", "lat": 53.9084464376808, "lon": 173.46950631023122, "alt_km": 728.3043429394465, "timestamp": "2025-12-15T22:44:29.324288+00:00", "meta": {"OBJECT_NAME": "COSMOS 2251 DEB", "OBJECT_ID": "1993-036NT", "EPOCH": "2025-12-15T05:05:16.641888", "MEAN_MOTION": 14.50067091, "ECCENTRICITY": 0.00158512, "INCLINATION": 74.0276, "RA_OF_ASC_NODE": 151.7166, "ARG_OF_PERICENTER": 281.1122, "MEAN_ANOMALY": 257.764, "EPHEMERIS_TYPE": 0, "CLASSIFICATION_TYPE": "U", "NORAD_CAT_ID": 34321, "ELEMENT_SET_NO": 999, "REV_AT_EPOCH": 88522, "BSTAR": 0.00048119083, "MEAN_MOTION_DOT": 1.842e-05, "MEAN_MOTION_DDOT": 0}, "tle": {"line1": "1 34321U 93036NT  25349.21199817  .00001842  00000+0  48119-3 0  9995", "line2": "2 34321  74.0276 151.7166 0015851 281.1122 257.7640 14.50067091885224"}}, "geometry": {"type": "Point", "coordinates": [173.46950631023122, 53.9084464376808]}}, {"type": "Feature", "properties": {"norad_id": 34323, "name": "COSMOS 2251 DEB", "group": "cosmos-2251-debris", "lat": -5.624518239945691, "lon": 115.19390488392004, "alt_km": 689.9631021074738, "timestamp": "2025-12-15T22:44:29.324298+00:00", "meta": {"OBJECT_NAME": "COSMOS 2251 DEB", "OBJECT_ID": "1993-036NV", "EPOCH": "2025-12-15T08:14:45.329280", "MEAN_MOTION": 14.74525154, "ECCENTRICITY": 0.00587389, "INCLINATION": 73.9524, "RA_OF_ASC_NODE": 118.0033, "ARG_OF_PERICENTER": 161.3847, "MEAN_ANOMALY": 228.2502, "EPHEMERIS_TYPE": 0, "CLASSIFICATION_TYPE": "U", "NORAD_CAT_ID": 34323, "ELEMENT_SET_NO": 999, "REV_AT_EPOCH": 88478, "BSTAR": 0.0015079729, "MEAN_MOTION_DOT": 0.00010298, "MEAN_MOTION_DDOT": 0}, "tle": {"line1": "1 34323U 93036NV  25349.34358020  .00010298  00000+0  15080-2 0  9999", "line2": "2 34323  73.9524 118.0033 0058738 161.3847 228.2502 14.74525154884788"}}, "geometry": {"type": "Point", "coordinates": [115.19390488392004, -5.624518239945691]}}, {"type": "Feature", "properties": {"norad_id": 34325, "name": "COSMOS 2251 DEB", "group": "cosmos-2251-debris", "lat": 56.76136885320609, "lon": -19.04762598025903, "alt_km": 856.3306186546961, "timestamp": "2025-12-15T22:44:29.324308+00:00", "meta": {"OBJECT_NAME": "COSMOS 2251 DEB", "OBJECT_ID": "1993-036NX", "EPOCH": "2025-12-15T07:38:16.369728", "MEAN_MOTION": 14.04489329, "ECCENTRICITY": 0.01920341, "INCLINATION": 73.8708, "RA_OF_ASC_NODE": 188.2638, "ARG_OF_PERICENTER": 205.0803, "MEAN_ANOMALY": 335.8125, "EPHEMERIS_TYPE": 0, "CLASSIFICATION_TYPE": "U", "NORAD_CAT_ID": 34325, "ELEMENT_SET_NO": 999, "REV_AT_EPOCH": 85551, "BSTAR": 0.0013720184, "MEAN_MOTION_DOT": 2.555e-05, "MEAN_MOTION_DDOT": 0}, "tle": {"line1": "1 34325U 93036NX  25349.31824502  .00002555  00000+0  13720-2 0  9997", "line2": "2 34325  73.8708 188.2638 0192034 205.0803 335.8125 14.04489329855510"}}, "geometry": {"type": "Point", "coordinates": [-19.04762598025903, 56.76136885320609]}}]}